#dP2019  1 26  0  0  0.00000000      96 __u+U ITR00 FIT  IAC
## 2037 518400.00000000   900.00000000 58509 0.0000000000000
+   92   C01C02C03C04C05C06C07C08C09C10C11C12C13C14C16E01E02
+        E03E04E05E07E08E09E11E12E13E14E15E18E19E21E24E25E26
+        E27E30E31E33E36G01G02G03G04G05G06G07G08G09G10G11G12
+        G13G14G15G16G17G19G20G21G22G23G24G25G26G27G28G29G30
+        G31G32R01R02R03R04R05R07R08R09R10R11R13R14R15R17R18
+        R19R20R21R22R23R24R26  0  0  0  0  0  0  0  0  0  0
++        13 12 13 13  0  8  9  9  8  8  8  8  8  8  9  5  5
++         6  6  5  5  6  6  6  6  6  6  6  6  5  5  6  6  5
++         5  5  6  7  7  4  3  4  4  3  4  4  3  4  4  4  4
++         4  4  4  4  3  4  4  4  4  3  4  4  3  3  4  4  3
++         4  4  6  6  6  5  5  5  5  5  5  5  5  5  6  5  6
++         6  5  5  5  5  6  8  0  0  0  0  0  0  0  0  0  0
%c M  cc GPS ccc cccc cccc cccc cccc ccccc ccccc ccccc ccccc
%c cc cc ccc ccc cccc cccc cccc cccc ccccc ccccc ccccc ccccc
%f  0.0000000  0.000000000  0.00000000000  0.000000000000000
%f  0.0000000  0.000000000  0.00000000000  0.000000000000000
%i    0    0    0    0      0      0      0      0         0
%i    0    0    0    0      0      0      0      0         0
/*                                                          
/*   RSA / INFORMATION & ANALYSIS CENTER (IAC) OF MCC       
/*   ULTRA-RAPID DETERMINATION                              
/* PCV:IGS14_2035 OL/AL:FES2004  NONE     YN ORB:CoN CLK:CoN
*  2019 01 26 20 30  0.00000000
PC01 -32258.289182  27137.193079   -284.696321    137.767272
PC02   4490.316977  41937.439905   1122.134742   -273.751365
PC03 -14830.697563  39508.439673    194.129909    -53.888104
PC04 -39616.301824  14371.957622    -20.251041   -197.601555
PC05      0.000000      0.000000      0.000000 999999.999999
PC06 -18774.343460  37939.509633   1864.252803    323.664190
PC07  -8562.680346  27236.877354 -30786.266661    179.548070
PC08 -20871.632190  20850.605576  30083.015137     98.335708
PC09 -10369.820959  39225.275879 -11895.868632    481.691771
PC10   4989.007688  34452.045996 -23381.946057   -441.114743
PC11 -14495.551410  -7478.696018 -22570.877979     24.612779
PC12  11734.957327 -21326.625644 -13651.599019    374.674373
PC13  -7001.318092  23801.120722  34105.222922   -506.973528
PC14  -9582.323336 -25153.426573   7319.883814    829.634305
PC16 -16791.026199  38775.675767   -251.933907   -117.672998
PE01 -12684.561653 -23324.253810  13081.498560   -529.222462
PE02  12733.762227  23332.091052 -13041.037026     44.972518
PE03   2225.114227  27201.921825 -11447.162463   -126.611426
PE04 -14111.298612 -12021.589483  23075.365343   -208.259061
PE05 -11054.923636  26556.605735   6975.217434    118.250589
PE07  17813.200143 -10378.370819 -21242.042535   -119.968152
PE08  14117.711267  11778.587647 -23197.661851   6415.655520
PE09 -17598.297884  10539.803279  21335.400252   6546.462573
PE11 -28310.930541   8636.514372   -769.028709   5720.236376
PE12 -22669.562589  -5451.977899 -18233.109988   6030.387272
PE13  28287.450867  -8660.322283    963.824673    382.211677
PE14   2821.593464 -25476.804503 -16088.650151   6454.067560
PE15  22908.971627   5056.774649  18063.890102    921.854172
PE18 -13789.934265  22721.946662   3995.459158   5576.655606
PE19   -827.714558 -27932.481210   9752.152199     -8.829919
PE21   6102.108064 -15948.300958  24175.468770   -516.419105
PE24 -20816.513735   -342.179522 -21041.364814   6265.479521
PE25  -6134.378359  15923.981048 -24181.676185   1911.996758
PE26  17333.102923 -17297.269746 -16621.404677   4974.635823
PE27  21076.415169    769.566240  20775.825770    541.747139
PE30  23682.005209  16854.661706   5626.816870   5156.772512
PE31 -23659.057207 -17012.839336  -5185.567901    922.538189
PE33  -4121.173842 -15849.151293 -24642.582550    847.958771
PE36 -17109.412718  17374.126882  16795.359740    754.980057
PG01 -14487.600497 -13369.723961 -18114.500439   -152.154360
PG02  -9603.184636  14564.337623  20576.741404   -123.574192
PG03 -13177.773893 -22974.287099   2421.173212    179.643293
PG04 -18142.106194   2159.934008  19286.636166     96.186943
PG05   -920.468216  21619.319550  15144.631505      0.932062
PG06 -21521.878742   7841.475926  13510.478355    288.863007
PG07 -25009.223662  -6947.296787   6923.635528     44.299309
PG08   2710.957758 -22122.534432 -14253.130566   -130.499988
PG09 -15190.214411  -4422.676858  21288.288604    466.797673
PG10  15753.735895  -1609.589808 -21300.174690    128.602602
PG11  -8761.864173 -14282.861382 -21126.665056   -669.664118
PG12  10169.804480  24645.302590    -21.414420    273.126077
PG13 -11001.545424  22411.690985  -9129.877632    -76.957458
PG14  18760.547499 -17799.436456  -5318.237067    -92.498282
PG15   1970.840364  21223.835154 -15855.057477   -330.580741
PG16   2178.762710 -21555.227388  14890.481329    -15.207742
PG17 -19584.557538  11024.691574 -13665.569856      0.862431
PG19 -19460.968348  17177.924030  -6169.212848   -359.167494
PG20  19534.423254   7416.814019 -16586.933070    521.554036
PG21  25770.444600   4150.965458   5395.300868   -261.834424
PG22  -9670.360523 -24197.706977  -5033.099559   -631.657744
PG23  -8557.838377 -14525.320151  20747.293645   -199.280537
PG24  10154.225312  14720.597097 -19880.351140    -61.321764
PG25  16567.127847  18222.039835  10082.898027   -711.566100
PG26   8571.968952 -14744.424831  20307.410360    107.372647
PG27  10930.448169 -23378.669796  -5678.407738    -56.047664
PG28 -15420.690848  -1208.256110 -20963.170819    763.048783
PG29  11771.672082   8761.339293  22116.660890    284.512130
PG30 -26248.221234    421.446050  -4592.859324    -42.348781
PG31  20219.906232  -8719.861030  15171.061212     62.999970
PG32  19209.703172 -13600.172529 -12166.279491   -256.621815
PR01   2827.916625 -24714.956979  -5681.358949     38.526993
PR02  -6272.879236 -20265.683916  14157.207518    351.284744
PR03 -10839.886224  -3471.998382  22858.021406     -9.334790
PR04  -8854.816599  15775.320475  18001.855741    292.819648
PR05  -2020.689104  25211.058424   3405.453725     20.827353
PR07  10842.968335   3039.712399 -22861.506177    -56.648494
PR08   9061.657934 -15107.280484 -18398.474629     19.364405
PR09  18836.419750  15577.371652  -7173.456025     51.057468
PR10  22150.810064   8945.513834   8818.076277     40.508389
PR11  13149.290792  -4074.693235  21478.363966    -54.751741
PR13 -18440.253616 -15485.608782   8394.057783    -19.423055
PR14 -22306.562205  -8697.471303  -8798.850370     35.337549
PR15 -13782.154587   3288.304930 -21189.157139     99.500110
PR17 -20353.107617   3255.044993 -14986.958239    199.421031
PR18 -22148.312234  12665.961626   1163.390025     30.982218
PR19 -12209.700389  14836.039658  16784.586536    -61.718953
PR20   6619.017978   8322.135805  23198.010390   -366.858987
PR21  20614.084938  -3671.858023  14594.239361    -27.782948
PR22  21320.526968 -13389.862437  -3654.770089    -64.283031
PR23   7520.761404 -14242.916346 -19778.576094    205.697582
PR24  -8283.935168  -7340.308602 -22999.586318   -176.479251
PR26   4844.459122   9337.867777  23254.357298     -5.815154
EOF
